name,address1,address2,address3,borough_name,website,os_addressbase_uprn,borough_code,ward_2022_name,ward_2022_code,latitude,longitude,easting,northing,,,
Domobaal,3 John Street,,,Camden,http://www.domobaal.com/#,10091862142,E09000007,Holborn & Covent Garden,E05013662,51.52109586,-0.113122142,531006.2767,181929.0345,,,
Eagle Gallery,159 Farringdon Road,,,Islington,http://www.emmahilleagle.com/#,5300033028,E09000019,Clerkenwell,E05013702,51.52365123,-0.108172319,531342.3127,182222.0575,,,
Catto Gallery,100 Heath Street,,,Camden,http://www.cattogallery.co.uk/#,5010317,E09000007,Hampstead Town,E05013659,51.55799728,-0.17688165,526480.7581,185920.4478,,,
Austin/Desmond Fine Art,Pied Bull YardÂ ,68â„69Â Great Russell Street,,Camden,http://austindesmond.com/#,5083316,E09000007,Bloomsbury,E05013653,51.51828276,-0.122767057,530345.2044,181599.0102,,,
The October Gallery,24 Old Gloucester Street,,,Camden,http://www.octobergallery.co.uk/#,5087208,E09000007,Holborn & Covent Garden,E05013662,51.52018301,-0.120122844,530523.2229,181815.0279,,,
Rebecca Hossack Gallery 1,2a Conway Street,,,Camden,http://www.rebeccahossack.com/#,5087297,E09000007,Bloomsbury,E05013653,51.52153754,-0.137943496,529283.084,181934.0486,,,
Woolff Gallery,89 Charlotte St,,,Camden,http://www.woolffgallery.co.uk/#,5087726,E09000007,Bloomsbury,E05013653,51.51996059,-0.135485033,529458.1048,181763.0321,,,
Lahd Gallery,92 Heath Street,,,Camden,http://www.lahdgallery.com/#,5087751,E09000007,Hampstead Town,E05013659,51.55771011,-0.176921991,526478.7576,185888.4438,,,
The Cob Gallery,205 Royal College Street,,,Camden,http://www.cobgallery.com/#,5087949,E09000007,St Pancras & Somers Town,E05013669,51.54065193,-0.136442133,529333.0767,184062.2405,,,
Hanmi Gallery,30 Maple Street,,,Camden,http://www.hanmigallery.co.uk/#,5088144,E09000007,Bloomsbury,E05013653,51.52169017,-0.137360609,529323.0882,181952.0502,,,
Gagosian Gallery 1,6-24 Brittania Street,,,Camden,http://www.gagosian.com/#,5088316,E09000007,King's Cross,E05013666,51.5295938,-0.116418769,530753.243,182868.1197,,,
Novelty Automation,1A Princeton Street,,,Camden,http://www.novelty-automation.com/#,5105749,E09000007,Holborn & Covent Garden,E05013662,51.51915264,-0.115321587,530859.2615,181709.016,,,
Tristan Hoare,6 Fitzroy Square,,,Camden,http://www.tristanhoare.co.uk/#,5113050,E09000007,Bloomsbury,E05013653,51.52294747,-0.137813889,529288.0833,182091.0631,,,
The Crypt Gallery,St Pancras Church,Euston Road,,Camden,http://cryptgallery.org.uk/#,5188543,E09000007,Bloomsbury,E05013653,51.52656883,-0.128582733,529918.151,182510.0959,,,
Leyden Gallery,9/9a Leyden Street,,,Tower Hamlets,http://www.leydengallery.com/#,6001837,E09000030,Spitalfields & Banglatown,E05009333,51.51638732,-0.074641529,533689.5707,181475.0063,,,
Brick Lane Gallery,216 Brick Lane,,,Tower Hamlets,http://www.thebricklanegallery.com/#,6002804,E09000030,Weavers,E05009335,51.52397045,-0.069808992,534002.5951,182327.1009,,,
Espacio Gallery,159 Bethl Green Road,,,Tower Hamlets,http://www.espaciogallery.com/#,6005162,E09000030,Weavers,E05009335,51.52509833,-0.068939478,534059.5997,182454.1157,,,
Whitechapel Gallery,77-82 Whitechapel High Street,,,Tower Hamlets,http://www.whitechapel.org/#,6011122,E09000030,Whitechapel,E05009336,51.51566133,-0.068776522,534098.614,181405.008,,,
Stolenspace Gallery,"17 Osborn St,",,,Tower Hamlets,https://www.stolenspace.com/#,6015771,E09000030,Whitechapel,E05009336,51.51596334,-0.068547523,534113.6153,181439.0115,,,
Union Gallery,94 Teesdale Street,,,Tower Hamlets,http://www.union-gallery.com/#,6178788,E09000030,St Peter's,E05009331,51.52930433,-0.059732984,534685.8084,182938.751,,,
Cell Project Space,258 Cambridge Heath Road,,,Tower Hamlets,http://www.cellprojects.org/#,6180728,E09000030,St Peter's,E05009331,51.53276995,-0.055015701,535002.747,183332.8431,,,
Raven Row,56 Artillery Lane,,,Tower Hamlets,http://www.ravenrow.org/#,6653355,E09000030,Spitalfields & Banglatown,E05009333,51.51764768,-0.075265891,533642.5645,181614.0194,,,
The Cynthia Corbett Gallery,15 Claremont Lodge,,,Merton,http://www.thecynthiacorbettgallery.com/#,48022286,E09000024,Raynes Park,E05013823,51.41499765,-0.221209569,523794.425,169942.9592,,,
Bank of England Museum,Bartholomew Lane,,,City of London,http://www.bankofengland.co.uk/education/Pages/museum/visiting/default.aspx#,95511162,E09000001,Cornhill,E05009301,51.51372411,-0.086112163,532901.4909,181157.96,,,
Crane Kalman,178 Brompton Road,,,Kensington and Chelsea,http://cranekalman.com/#,217007694,E09000020,Brompton & Hans Town,E05009389,51.49745899,-0.165725579,527422.9054,179207.8036,,,
The Rowley Gallery,115 Kensington Church Street,,,Kensington and Chelsea,http://www.rowleygallery.co.uk/#,217043176,E09000020,Campden,E05009390,51.50626751,-0.193200542,525491.6852,180139.9023,,,
Japanese Gallery,66D Kensington Church St,,,Kensington and Chelsea,http://www.japanese-gallery.com/#,217043283,E09000020,Campden,E05009390,51.50481322,-0.192206067,525564.6946,179979.8865,,,
Museum of Brands,111-117 Lancaster Road,,,Kensington and Chelsea,http://www.museumofbrands.com/#,217050374,E09000020,Notting Dale,E05009399,51.51586215,-0.209527314,524332.5477,181179.0065,,,
The Dot Project,94 Fulham Road,,,Kensington and Chelsea,http://www.thedotproject.com/#,217103153,E09000020,Stanley,E05009405,51.48928315,-0.17374671,526888.8522,178284.7185,,,
Offer Waterman & Co,11 Langton Street,,,Kensington and Chelsea,http://www.waterman.co.uk/#,217103621,E09000020,Chelsea Riverside,E05009391,51.48177813,-0.179246376,526527.8038,177440.6353,,,
Cadogan Contemporary,87 Old Brompton Road,,,Kensington and Chelsea,http://www.cadogancontemporary.com/#,217103741,E09000020,Courtfield,E05009393,51.49200577,-0.175323519,526771.8382,178584.7488,,,
Richard Young Gallery,4 Holland Street,,,Kensington and Chelsea,http://www.richardyounggallery.co.uk/#,217106179,E09000020,Campden,E05009390,51.50280048,-0.190550283,525685.1398,179758.9054,,,
Hackelbury,4 Launceston Place,,,Kensington and Chelsea,http://www.hackelbury.co.uk/#,217106588,E09000020,Queen's Gate,E05009401,51.49852225,-0.183766347,526167.7671,179294.8189,,,
Richard Green 2,33 New Bond Street,,,Westminster,http://www.richard-green.com/#,10033538913,E09000033,West End,E05013808,51.51123753,-0.142044713,529027.6668,180781.4428,,,
The Foundry Gallery,39 Old Church Street,,,Kensington and Chelsea,http://www.thefoundrygallery.org/#,217106994,E09000020,Chelsea Riverside,E05009391,51.48387629,-0.170750556,527111.8723,177688.6579,,,
Saatchi Gallery,Duke of York's HQ,King's Road,,Kensington and Chelsea,http://www.saatchi-gallery.co.uk/#,217110596,E09000020,Royal Hospital,E05009403,51.49009321,-0.157118058,528040.9764,178403.7241,,,
Graffik Gallery,284 Portobello Road,,,Kensington and Chelsea,http://graffikgallery.com/#,217113237,E09000020,Colville,E05009392,51.51884574,-0.205849663,524579.5719,181517.0369,,,
Flying Colours Gallery,6 Burnsall Street,,,Kensington and Chelsea,http://www.flyingcoloursgallery.com/#,217115299,E09000020,Royal Hospital,E05009403,51.48830408,-0.164609267,527525.9213,178191.7068,,,
Sway Gallery,70-72 Old Street,,,Islington,http://www.sway-gallery.com/#,5300069554,E09000019,Bunhill,E05013699,51.52372993,-0.093593237,532353.4236,182257.0611,,,
Islington Arts Factory,2 Parkhurst Rd,,,Islington,http://www.islingtonartsfactory.org/#,5300075947,E09000019,Holloway,E05013706,51.55371125,-0.121265295,530348.1822,185541.3678,,,
James Freeman Gallery,354 Upper Street,,,Islington,http://www.sesameart.com/#,5300095173,E09000019,St Peter's & Canalside,E05013711,51.53409791,-0.102922698,531676.3414,183393.1684,,,
Space Station 65,373 Kennington Road,,,Lambeth,http://spacestationsixtyfive.com/#,10000445110,E09000022,Kennington,E05014105,51.48601134,-0.109183494,531380.337,178034.6659,,,
CGP London,1 Park Approach,Southwark Park,,Southwark,http://cgplondon.org/#,10000811263,E09000028,Rotherhithe,E05011112,51.49363345,-0.052317588,535305.7708,178985.7637,,,
Purdy Hicks,65 Hopton Street,,,Southwark,http://www.purdyhicks.com/#,10000811558,E09000028,Borough & Bankside,E05011095,51.50695993,-0.100432908,531927.3894,180379.8857,,,
Sprout Community Arts,74 Moyser Road,,,Wandsworth,http://www.sproutarts.com/#,10008157629,E09000032,Furzedown,E05014013,51.42351214,-0.145628394,529025.97,171019.989,,,
Flowers Gallery East,82 Kingsland Road,,,Hackney,http://www.flowersgallery.com/#,10008242588,E09000012,Haggerston,E05009375,51.52913735,-0.075559892,533588.5468,182891.1499,,,
Modern Art 1,4-8 Helmet Row,,,Islington,http://www.modernart.net/#,10008977815,E09000019,Bunhill,E05013699,51.52452873,-0.092939916,532396.4274,182347.0708,,,
Cubitt Gallery,8 Angel Mews,,,Islington,http://cubittartists.org.uk/#,10012791474,E09000019,Clerkenwell,E05013702,51.53184051,-0.106261015,531451.3188,183136.1423,,,
Vitrine,15 Bermondsey Square,,,Southwark,http://www.vitrinegallery.co.uk/#,10013529059,E09000028,London Bridge & West Bermondsey,E05011104,51.49687761,-0.079165688,533432.6531,179297.2512,,,
Skarstedt Gallery,8 Bennet Street,,,Westminster,http://www.skarstedt.com/#,10033524577,E09000033,St James's,E05013806,51.50660747,-0.13902792,529250.0958,180271.8929,,,
Ben Brown Fine Arts,12 Brookâ€™s Mews,,,Westminster,http://www.benbrownfinearts.com/#,10033526904,E09000033,West End,E05013808,51.51189141,-0.144433792,528860.0478,180849.9497,,,
Marlborough Fine Art,6 Albemarle Street,,,Westminster,http://www.marlboroughfineart.com/#,10033528809,E09000033,St James's,E05013806,51.50805031,-0.139271776,529229.0921,180431.9081,,,
Messum's,28 Cork Street,,,Westminster,http://www.messums.com/#,10033532792,E09000033,West End,E05013808,51.50996577,-0.139827885,529185.0853,180643.9286,,,
Serpentine Gallery,Kensington Gardens,,,Westminster,http://www.serpentinegallery.org/#,10033534401,E09000033,Knightsbridge & Belgravia,E05013797,51.50427907,-0.173406528,526870.8383,179952.8765,,,
Frith Street Gallery,17-18 Golden Square,,,Westminster,http://www.frithstreetgallery.com/#,10033534803,E09000033,West End,E05013808,51.51068715,-0.135416932,529489.1178,180731.935,,,
Sprovieri,23 Heddon Street,,,Westminster,http://www.sprovieri.com/london/#,10033536350,E09000033,West End,E05013808,51.51061608,-0.138302438,529289.0961,180718.9351,,,
Chelsea Space,Chelsea College of Arts,16 John Islip Street,,Westminster,http://www.chelseaspace.org/#,10033538283,E09000033,Vincent Square,E05013807,51.48992522,-0.126655127,530156.2064,178438.7138,,,
Olivier Malingue,1st Floor,143 New Bond St,,Westminster,http://oliviermalingue.com/#,10033538864,E09000033,West End,E05013808,51.5109879,-0.142467085,528999.064,180752.9397,,,
Richard Green 1,147 New Bond Street,,,Westminster,http://www.richard-green.com/#,10033538867,E09000033,West End,E05013808,51.51080518,-0.142287149,529012.0656,180732.9379,,,
White Cube,25-26 Masonâ€™s Yard,,,Westminster,http://whitecube.com/#,10033550744,E09000033,St James's,E05013806,51.50710128,-0.135577762,529488.1214,180332.898,,,
Willow Gallery,40 - 41 Duke Street,St James's,,Westminster,http://www.willowgallery.com/#,10033555200,E09000033,St James's,E05013806,51.50683819,-0.136402051,529431.6655,180302.1854,,,
Albemarle Gallery,49 Albemarle Street,,,Westminster,http://www.albemarlegallery.com/#,10033567550,E09000033,St James's,E05013806,51.5075163,-0.139625012,529206.0901,180371.9025,,,
Rosenfeld Porcini,37 Rathbone Street,,,Westminster,http://rosenfeldporcini.com/#,10033569652,E09000033,West End,E05013808,51.5180099,-0.134411482,529538.1156,181548.011,,,
Lisson Gallery 1,67 Lisson St,Marylebone,,Westminster,http://www.lissongallery.com/#,10033571495,E09000033,Hyde Park,E05013796,51.52057634,-0.166555495,527300.8685,181777.0456,,,
Imitate Modern,19 Shepherd Market,,,Westminster,http://imitatemodern.com/#,10033585747,E09000033,West End,E05013808,51.50592343,-0.145238341,528821.0495,180184.8879,,,
Mark Gallery,9 Porchester Place,,,Westminster,http://www.markgallery.co.uk/#,10033586949,E09000033,Hyde Park,E05013796,51.51436604,-0.163950904,527498.8962,181090.98,,,
Halcyon Gallery I,144-146 New Bond Street,,,Westminster,http://www.halcyongallery.com/#,10033587866,E09000033,West End,E05013808,51.51088789,-0.142399088,529004.0647,180741.9383,,,
PM/AM,259-269 Old Marylebone Road,,,Westminster,http://www.pmam.org/#,10033588738,E09000033,Marylebone,E05013801,51.51772196,-0.165185374,527403.8825,181462.0159,,,
Graham Hunter Gallery,81 Baker Street,,,Westminster,http://www.grahamhuntergallery.co.uk/#,10033590107,E09000033,Marylebone,E05013801,51.5194382,-0.155342499,528081.9549,181670.0307,,,
Sims Reed Gallery,The Economist Building,30 Bury Street,,Westminster,http://gallery.simsreed.com/#,10033591023,E09000033,St James's,E05013806,51.50638098,-0.137207443,529377.0699,180249.9204,,,
Sadie Coles HQ,62 Kingly Street,Mayfair,,Westminster,http://www.sadiecoles.com/#,10033594510,E09000033,West End,E05013808,51.51179933,-0.137490282,529342.1007,180851.9477,,,
Waddington Custot Galleries,11 Cork Street,,,Westminster,http://www.waddingtoncustot.com/#,10033594958,E09000033,West End,E05013808,51.50960001,-0.140015737,529173.0844,180602.9244,,,
Berrd Jacobson Gallery,6 Cork Street,,,Westminster,http://www.jacobsongallery.com/#,10033601869,E09000033,West End,E05013808,51.51003691,-0.140343849,529149.0813,180650.9297,,,
Michael Werner Gallery,22 Upper Brook Street,,,Westminster,http://www.michaelwerner.com/#,10033602320,E09000033,West End,E05013808,51.51084502,-0.154493399,528164.9725,180715.9415,,,
Hauser & Wirth 2,23 Saville Row,,,Westminster,http://www.hauserwirth.com/#,10033621621,E09000033,West End,E05013808,51.511485,-0.139218286,529223.088,180813.944,,,
Great Western Studios,65 Alfred Street,,,Westminster,http://www.greatwesternstudios.com/#,10033624231,E09000033,Westbourne,E05013809,51.52068971,-0.194734461,525345.6546,181741.0535,,,
David Gill,2-4 King Street,,,Westminster,http://www.davidgillgallery.com/#,10033629513,E09000033,St James's,E05013806,51.50626107,-0.135338243,529507.1244,180239.8891,,,
Thomas Dane Gallery,11 Duke Street,,,Westminster,http://www.thomasdanegallery.com/#,10033630669,E09000033,St James's,E05013806,51.50681063,-0.135964335,529462.1189,180299.8941,,,
Alison Jacques Gallery,16-18 Berners Street,,,Westminster,http://www.alisonjacquesgallery.com/,10033631411,E09000033,West End,E05013808,51.51696659,-0.134973061,529502.1128,181431.0006,,,
Fold,158 New Cavendish Street,,,Camden,http://www.foldgallery.com/#,10033632030,E09000007,Bloomsbury,E05013653,51.52002532,-0.137861027,529293.0866,181766.0334,,,
Annely Juda Fine Art,4th floor,23 Dering Street,,Westminster,http://www.annelyjudafineart.co.uk/#,10033633944,E09000033,West End,E05013808,51.51374527,-0.14394044,528889.0491,181056.9693,,,
Gagosian Gallery 2,17-19 Davies Street,,,Westminster,http://www.gagosian.com/#,10033634159,E09000033,West End,E05013808,51.51054271,-0.146160507,528744.0364,180696.9364,,,
Pangolin London,90 York Way,,,Islington,http://www.pangolinlondon.com/#,10090550427,E09000019,Caledonian,E05013700,51.53448925,-0.119966009,530493.2107,183406.1714,,,
Maestro Arts,One Eastfields Avenue,,,Wandsworth,http://www.maestroarts.com/#,10091499728,E09000032,Thamesfield,E05014022,51.46135157,-0.196558984,525381.6431,175139.4206,,,
Asia House,63 New Cavendish Street,,,Westminster,http://asiahouse.org/#,10091858261,E09000033,West End,E05013808,51.51919745,-0.144641359,528825.0362,181662.026,,,
Coningsby Gallery,30 Tottenham Street,Fitzrovia,,Camden,https://www.coningsbygallery.com/#,10091859525,E09000007,Bloomsbury,E05013653,51.51985559,-0.13453787,529524.1121,181753.0304,,,
Newport Street,3 Newport Street,,,Lambeth,http://www.newportstreetgallery.com/#,10093376049,E09000022,Kennington,E05014105,51.49291799,-0.11539545,530929.2915,178791.5735,,,
Danielle Arnaud,123 Kennington Road,,,Lambeth,http://www.daniellearnaud.com/#,1.00E+11,E09000022,Kennington,E05014105,51.4942894,-0.108869727,531378.3407,178955.7569,,,
Lisson Gallery 2,27 Bell St,Marylebone,,Westminster,http://www.lissongallery.com/#,1.00E+11,E09000033,Church Street,E05013794,51.52039326,-0.168076534,527195.8573,181754.0442,,,
Fiumano Fine Art,27 Conught Street,,,Westminster,http://www.fiumanofineart.com/#,1.00E+11,E09000033,Hyde Park,E05013796,51.51392473,-0.163910995,527502.8971,181041.9751,,,
The Residence,229 Victoria Park Road,,,Hackney,http://www.residence-gallery.com/#,1.00E+11,E09000012,Victoria,E05009386,51.53781866,-0.042557202,535851.7779,183917.3051,,,
Morley College Gallery,61 Westminster Bridge Road,,,Southwark,https://www.morleycollege.ac.uk/facilities/the-gallery#,1.00E+11,E09000028,St George's,E05011114,51.49736611,-0.108367728,531404.3406,179298.7888,,,
Gasworks Gallery,155 Vauxhall Street,,,Lambeth,http://www.gasworks.org.uk/#,1.00E+11,E09000022,Kennington,E05014105,51.48462055,-0.113850591,531060.301,177871.6512,,,
Foss Fine Art,113b Northcote Road,,,Wandsworth,http://fossfineart.com/#,1.00E+11,E09000032,Northcote,E05014016,51.45655973,-0.163651714,527680.865,174663.3393,,,
Northcote Gallery Battersea,110 Northcote Road,,,Wandsworth,http://www.northcotegallery.com/#,1.00E+11,E09000032,Northcote,E05014016,51.45636157,-0.164206711,527642.8608,174640.3375,,,
Kristin Hjellegjerde,533 Old York Road,,,Wandsworth,http://kristinhjellegjerde.com/#,1.00E+11,E09000032,Wandsworth Town,E05014028,51.45930095,-0.187224359,526035.7043,174927.3887,,,
The Osborne Studio Gallery,2 Motcomb Street,,,Westminster,http://www.osg.uk.com/#,1.00E+11,E09000033,Knightsbridge & Belgravia,E05013797,51.49869392,-0.155013173,528162.9849,179363.814,,,
Alan Cristea Gallery,43 Pall Mall,,,Westminster,http://www.alancristea.com/#,1.00E+11,E09000033,St James's,E05013806,51.50557485,-0.134602456,529560.1309,180164.8817,,,
Paisnel Gallery,9 Bury Street,,,Westminster,http://www.paisnelgallery.co.uk/#,1.00E+11,E09000033,St James's,E05013806,51.5062448,-0.136578309,529421.1149,180235.8884,,,
Sladmore,57 Jermyn Street,,,Westminster,http://www.sladmore.com/#,1.00E+11,E09000033,St James's,E05013806,51.50724689,-0.13794979,529323.1031,180344.8998,,,
Chris Beetles,8 & 10 Ryder Street,,,Westminster,http://www.chrisbeetles.com/#,1.00E+11,E09000033,St James's,E05013806,51.50661513,-0.136678491,529413.1137,180276.8925,,,
Photofusion Gallery,17A Electric Ln,Brixton,,Lambeth,http://www.photofusion.org/photography-exhibitions/#,1.00E+11,E09000022,Brixton Windrush,E05014098,51.46135658,-0.11233368,531232.2726,175287.3893,,,
Two Temple Place,2 Temple Place,,,City of London,http://www.twotempleplace.org/#,1.00E+11,E09000001,Farringdon Without,E05009305,51.51109098,-0.11063857,531207.3061,180820.9318,,,
Atlas Gallery,49 Dorset Street,,,Westminster,http://www.atlasgallery.com/#,1.00E+11,E09000033,Marylebone,E05013801,51.51899084,-0.153774859,528191.9672,181623.026,,,
Fashion Space Gallery,London College of Fashion,20 John Princes St,,Westminster,http://www.fashionspacegallery.com/#,1.00E+11,E09000033,West End,E05013808,51.51513066,-0.141693122,529041.0643,181214.9831,,,
Pi Artworks,55 Eastcastle Street,,,Westminster,http://www.piartworks.com/#,1.00E+11,E09000033,West End,E05013808,51.51590312,-0.13653005,529397.1024,181309.9899,,,
Pilar Corrias,54 Eastcastle Street,,,Westminster,http://www.pilarcorrias.com/#,1.00E+11,E09000033,West End,E05013808,51.5158955,-0.136616849,529391.1018,181308.9892,,,
Flowers Gallery Central,21 Cork Street,,,Westminster,http://www.flowersgallery.com/#,1.00E+11,E09000033,West End,E05013808,51.50962705,-0.13945254,529212.0887,180606.9246,,,
Erskine Hall & Coe,15 Royal Arcade,28 Old Bond St,,Westminster,http://www.erskinehallcoe.com/#,1.00E+11,E09000033,West End,E05013808,51.50856688,-0.140086644,529171.0852,180487.9141,,,
David Zwimer,24 Grafton Street,,,Westminster,http://www.davidzwirner.com/#,1.00E+11,E09000033,West End,E05013808,51.50896583,-0.141425169,529077.0745,180529.9185,,,
Colnaghi,15 Old Bond Street,,,Westminster,http://www.colnaghi.com/#,1.00E+11,E09000033,West End,E05013808,51.50854951,-0.138992012,529247.0935,180487.9133,,,
Gazelli Art House,39 Dover Street,,,Westminster,http://gazelliarthouse.com/#,1.00E+11,E09000033,West End,E05013808,51.50781388,-0.140809096,529123.0807,180402.906,,,
SprÃ¼th Magers,7 Grafton Street,,,Westminster,http://www.spruethmagers.com/#,1.00E+11,E09000033,West End,E05013808,51.50948124,-0.142168061,529024.0682,180585.9239,,,
D-Contemporary,23 Grafton Street,,,Westminster,http://dcontemporary.com/#,1.00E+11,E09000033,West End,E05013808,51.50902966,-0.141480221,529073.074,180536.9194,,,
Sadie Coles HQ Davies Street,1 Davies Street,,,Westminster,http://www.sadiecoles.com/#,1.00E+11,E09000033,West End,E05013808,51.50805762,-0.149965329,528487.0108,180413.911,,,
Hamiltons Gallery,13 Carlos Place,,,Westminster,http://www.hamiltonsgallery.com/#,1.00E+11,E09000033,West End,E05013808,51.51011892,-0.148368465,528592.0202,180645.9322,,,
Galeries Bartoux,104 New Bond Street,,,Westminster,http://www.galeries-bartoux.com/en/#,1.00E+11,E09000033,West End,E05013808,51.51303628,-0.144603469,528845.045,180976.9622,,,
Greenwich Printmakers Gallery,1a Greenwich Market,,,Greenwich,http://www.greenwich-printmakers.org.uk/#,1.00E+11,E09000011,Greenwich Park,E05014081,51.48085705,-0.007576419,538450.1618,177648.6705,,,
Crypt Museum,Byward Street,,,Tower Hamlets,http://www.allhallowsbythetower.org.uk/visit/crypt/,2.00E+11,E09000030,St Katharine's & Wapping,E05009330,51.50881823,-0.0775982,533506.5596,180627.9157,,,
Brocket Gallery,16 Windmill Row,,,Lambeth,http://www.brocketgallery.com/#,2.00E+11,E09000022,Kennington,E05014105,51.48650486,-0.110229078,531306.3293,178087.6717,,,
Victoria Miro Gallery I,16 Wharf Road,,,Hackney,http://www.victoria-miro.com/#,2.00E+11,E09000012,Hoxton West,E05009378,51.52981876,-0.093410366,532348.4576,182934.4789,,,
White Cube,144-152 Bermondsey Street,,,Southwark,http://whitecube.com/#,2.00E+11,E09000028,London Bridge & West Bermondsey,E05011104,51.49893711,-0.081068884,533294.5467,179522.8011,,,
Flat Time House,210 Bellenden Road,,,Southwark,http://flattimeho.org.uk/#,2.00E+11,E09000028,Rye Lane,E05011113,51.46558419,-0.072576615,533981.6163,175829.4582,,,
Arch Collective,Arch 12,Raymouth Road,,Southwark,http://www.archcollective.co.uk/#,2.00E+11,E09000028,North Bermondsey,E05011106,51.49160932,-0.057705715,534937.7329,178750.7384,,,
Jerwood Space Gallery,171 Union Street,,,Southwark,http://www.jerwoodspace.co.uk/#,2.00E+11,E09000028,Borough & Bankside,E05011095,51.50309902,-0.09749519,532142.4157,179955.847,,,
Contemporary Applied Arts,6 Paddington Street,W1U 5QG,,Westminster,http://www.caa.org.uk/#,1.00E+11,E09000033,Marylebone,E05013801,51.520921,-0.15255372,528271.2642,181839.8007,,,
Cardi Gallery London,22 Grafton Street,,,Westminster,https://cardigallery.com/,1.00E+11,E09000033,West End,E05013808,51.509603,-0.14314012,528956.2722,180597.7522,,,
Maureen Paley,60 Three Colts Lane,E2 6GQ,,Tower Hamlets,http://www.maureenpaley.com/#,See notes,E09000030,St Peter's,E05009331,51.52459,-0.05566,534982.2491,182422.013,,,
Arebyte,Java House,7 Botanic Square,,Tower Hamlets,http://www.arebyte.com/#,6703964,E09000030,Blackwall & Cubitt Town,E05009318,51.511286,0.005352869,539255.1113,181056.8371,,,
Modern Art,7 Bury Street,London,,Westminster,,1.00E+11,E09000033,St James's,E05013806,51.506691,-0.13811417,529313.2694,180282.7941,,,
Michael Hoppen Gallery,"Unit 10, Pall Mall Deposit",124-128 Barlby Road,,Kensington and Chelsea,http://www.michaelhoppengallery.com/#,217101233,E09000020,Dalgarno,E05009394,51.523233,-0.21889938,523662.3325,181982.7961,,,
London Mithraeum Bloomberg SPACE,12 Wallbrook,EC4N 8AA,,City of London,http://www.bloombergspace.com/#,2.00E+11,E09000001,Cordwainer,E05009300,51.51242,-0.090595407,532594.2106,181004.8129,,,
Parasol unit,32 Fitzroy Square,W1T 6EX,,Camden,http://www.parasol-unit.org/#,5087335,E09000007,Bloomsbury,E05013653,51.522404,-0.14057255,529098.2497,182025.7628,,,
Five Years,Unit 2B1,Boothby Road,,Islington,http://www.fiveyears.org.uk/#,5300030666,E09000019,Junction,E05013707,51.565714,-0.13163513,529595.2081,186857.6958,,,
Rocket Gallery,4-6 Sheep Lane,E8 4QS ,,Hackney,http://www.rocketgallery.com/#,10008322480,E09000012,London Fields,E05009381,51.535021,-0.060076278,534645.1319,183573.8386,,,
Unit G Gallery,Vittoria Wharf,10 Stour Road,,Tower Hamlets,http://unitg.london/gallery/#,See notes,E09000030,Bow East,E05009319,51.53968,-0.02122,537325.8561,184164.0545,,,
BSMT Space,529 Kingsland Road,E8 4AR,,Hackney,http://www.bsmt.co.uk/#,1.00E+11,E09000012,De Beauvoir,E05009371,51.54575,-0.075975007,533511.1579,184737.7808,,,
Workplace Gallery,40 Margaret Street,W1G 0JH,,Westminster,http://www.workplacegallery.co.uk/#,1.00E+11,E09000033,West End,E05013808,51.516225,-0.14275555,528964.2603,181334.8041,,,
Paradise Row,2 Bourdon Street,W1K 3PA,,Westminster,http://www.paradiserow.com/#,10033627127,E09000033,West End,E05013808,51.510661,-0.14688727,528693.2734,180708.8133,,,
Edel Assanti,1B Little Titchfield Street,W1W 7BU,,Westminster,http://www.edelassanti.com/#,10033537536,E09000033,West End,E05013808,51.51803,-0.14092365,529086.2571,181538.7494,,,
Muccaccia Gallery London,21 Dering Street,W1S 1AL,,Westminster,http://partnersandmucciaccia.net/#,10033550603,E09000033,West End,E05013808,51.514255,-0.14554521,528776.2656,181110.8294,,,
James Hyman Fine Art,48 & 50 Maddox Street,W1S 1AY,,Westminster,http://www.jameshymanfineart.com/#,10033613168,E09000033,West End,E05013808,51.512573,-0.14385525,528898.268,180926.7612,,,
Aktis Gallery,50 Jermyn Street,SW1Y 6LX,,Westminster,http://aktis-gallery.co.uk/#,1.00E+11,E09000033,St James's,E05013806,51.507933,-0.13875522,529265.2695,180419.7745,,,
The Sunday Painter,117-119 South Lambeth Road,SW8 1XA,,Lambeth,http://www.thesundaypainter.co.uk/#,10094054400,E09000022,Oval,E05014108,51.479165,-0.12345154,530409.2582,177247.8574,,,
Beers London,51 Little Britain,EC1A 7BH,,City of London,http://beerslondon.com/#,95515159,E09000001,Farringdon Within,E05009304,51.518353,-0.099874759,531933.2144,181647.8026,,,
Plus One Gallery,The Piper Building,Peterborough Road,,Hammersmith and Fulham,http://www.plusonegallery.com/#,See notes,E09000013,Palace & Hurlingham,E05013744,51.4659,-0.19315,525605.9681,175651.0421,,,
Pace London 1,5 Hanover Square,W1S 1HQ,,Westminster,http://www.pacegallery.com/#,10033619140,E09000033,West End,E05013808,51.513919,-0.14309434,528947.265,181077.7774,,,
Highgate Contemporary Art,"Unit B307, The Chocolate Factory",5 Clarendon Road,,Haringey,http://www.highgateart.com/#,1.00E+11,E09000014,Noel Park,E05013595,51.594564,-0.11491639,530671.2535,190095.6882,,,
Eleven,17 Gothic Road,Twickenham,,Richmond upon Thames,http://www.elevenfineart.com/#,1.00E+11,E09000027,West Twickenham,E05013790,51.442456,-0.3492755,514820.519,172788.0451,,,
La Galleria,298 Garratt Lane,Earlsfield,,Wandsworth,http://www.lagalleria.org/#,121045946,E09000032,Wandle,E05014026,51.444332,-0.19064344,525839.3023,173256.9688,,,
Stephen Wiltshire Gallery,22 Palace Court,W2 4HU,,Westminster,http://www.stephenwiltshire.co.uk/london_gallery.aspx#,1.00E+11,E09000033,Bayswater,E05013793,51.511535,-0.19195961,525563.3235,180727.7835,,,
Panter and Hall,11-12 Pall Mall,SW1Y 5LU,,Westminster,http://www.panterandhall.com/#,1.00E+11,E09000033,St James's,E05013806,51.507127,-0.13331222,529645.2649,180339.7651,,,
Art First,The Forge,15 St Mary's Walk,,Lambeth,http://www.artfirst.co.uk/#,1.00E+11,E09000022,Kennington,E05014105,51.493655,-0.10849388,531406.253,178885.8851,,,
The Fine Art Society,25 Carby Street,W1F 7DE,,Westminster,http://faslondon.com/#,1.00E+11,E09000033,West End,E05013808,51.513413,-0.13894984,529236.26,181028.8135,,,
Timothy Taylor Gallery,15 Bolton Street,W1J 8BG,,Westminster,http://www.timothytaylorgallery.com/#,1.00E+11,E09000033,West End,E05013808,51.507277,-0.14443075,528873.2754,180336.8269,,,
Andor Gallery,19 Ridley Road,E8 2NP,,Hackney,http://www.creativeandorcultural.com/#,10008464632,E09000012,Dalston,E05009370,51.54844,-0.073827857,533652.1607,185040.8406,,,
Adrian Sassoon Gallery,14 Rutland Gate,SW7 1BB,,Westminster,http://www.thesassoongallery.co.uk/#,1.00E+11,E09000033,Knightsbridge & Belgravia,E05013797,51.501174,-0.16868269,527207.3127,179615.7793,,,
Hannah Barry Gallery,4 Holly Grove,SE15 5DF,,Southwark,http://www.hannahbarry.com/#,2.00E+11,E09000028,Rye Lane,E05011113,51.470288,-0.069648394,534171.2185,176357.8783,,,
Rhodes Contemporary Art,3-5 Swallow Street,WC2H 8DA,,Camden,https://rhodescontemporaryart.com/,5066491,E09000007,Holborn & Covent Garden,E05013662,51.515427,-0.12764022,530015.245,181272.7866,,,
Catharine Miller Gallery,Hollywood Road Gallery,12 Hollywood Road,SW10 9HY,Kensington and Chelsea,https://www.catharinemiller.com/,217040769,E09000020,Redcliffe,E05009402,51.486038,-0.18471524,526136.3459,177904.9167,,,
Frith Street Gallery Soho Square,60 Frith Street,W1D 3JJ,,Westminster,https://www.frithstreetgallery.com/,1.00E+11,E09000033,West End,E05013808,51.514213,-0.13215783,529705.252,181129.7794,,,
Pontone Gallery,74 Newman Street,W1T 3DB,,Westminster,https://pontonegallery.com/,10033614780,E09000033,West End,E05013808,51.517627,-0.1359386,529433.2523,181502.7324,,,
Kristin Hjellegjerde Gallery (London Bridge),2 Melior Place,SE1 3SZ,,Southwark,https://kristinhjellegjerde.com/,No UPRN,E09000028,London Bridge & West Bermondsey,E05011104,51.50237,-0.08427,533062.3733,179898.7147,,,
Sadie Coles HQ Brury Street,8 Bury Street,SW1Y 6AB,,Westminster,http://www.sadiecoles.com/#,1.00E+11,E09000033,St James's,E05013806,51.506691,-0.13811417,529313.2694,180282.7941,,,
Ronchini Gallery,22 Dering Street,W1S 1AN,,Westminster,https://www.ronchinigallery.com/,No UPRN,E09000033,West End,E05013808,51.51416,-0.14626,528726.9384,181099.0089,,,
Gaglirdi Gallery,509 King's Road,SW10 0TX,,Kensington and Chelsea,https://www.gagliardigallery.org/,217106780,E09000020,Chelsea Riverside,E05009391,51.480809,-0.18390032,526207.3356,177324.8408,,,
Tanya Baxter Contemporary,436 King's Road,SW10 0LJ,,Kensington and Chelsea,https://tanyabaxtercontemporary.com/,217103526,E09000020,Stanley,E05009405,51.483214,-0.17777014,526626.333,177602.8574,,,
Eclectic Gallery,16 Newman Street,W1T 1PB,,Westminster,https://eclecticgallery.co.uk/,1.00E+11,E09000033,West End,E05013808,51.517255,-0.13514665,529489.2515,181462.7653,,,
Hales London,7 Bethl Green Road,E1 6LA,,Hackney,https://halesgallery.com/,No UPRN,E09000012,Hoxton East & Shoreditch,E05009377,51.52373,-0.07622,533558.5795,182288.6394,,,
Herald St (Shoreditch),2 Herald Street,E2 6JT,,Tower Hamlets,http://www.heraldst.com/,6176877,E09000030,St Peter's,E05009331,51.524865,-0.0555633,534988.1437,182452.7725,,,
Herald St (Camden),43 Museum Street,WC1A 1LY,,Camden,http://www.heraldst.com/,5087447,E09000007,Bloomsbury,E05013653,51.517728,-0.12532617,530169.2402,181532.7698,,,
Ojiri Gallery,29 Charlotte Road,EC2A 3PB,,Hackney,http://www.ojirigallery.com/,1.00E+11,E09000012,Hoxton East & Shoreditch,E05009377,51.525371,-0.081375219,533196.1827,182461.7225,,,
Kate MacGarry,27 Old Nichol Street,E2 7HR,,Tower Hamlets,https://www.katemacgarry.com/,6004160,E09000030,Weavers,E05009335,51.524699,-0.075435373,533610.1722,182397.8263,,,
Annka Kultys Gallery,Unit 9,472 Hackney Road,E2 9EQ,Tower Hamlets,http://www.annkakultys.com/,No UPRN,E09000030,St Peter's,E05009331,51.53214,-0.05829,534777.5199,183256.7493,,,
Yield Gallery,Floor 2,8 Denmark Streets,WC2H 8LS,Camden,https://www.yieldgallery.com/,No UPRN,E09000007,Holborn & Covent Garden,E05013662,51.51513,-0.12946,529889.8298,181236.5314,,,
Gallery Different,14 Percy Street,W1T 1DR,,Camden,https://www.gallerydifferent.co.uk/,5048677,E09000007,Bloomsbury,E05013653,51.518344,-0.13294012,529639.2475,181587.7664,,,
Eden Gallery,103 New Bond Street,W1S 1ST,,Westminster,https://www.eden-gallery.com/,1.00E+11,E09000033,West End,E05013808,51.513602,-0.14634997,528722.2684,181036.8005,,,
Delahunty Fine Art,29 Bruton St,W1J 6QP,,Westminster,http://www.delahuntyfineart.com/,1.00E+11,E09000033,West End,E05013808,51.51078,-0.14473518,528842.2699,180725.8293,,,
Albermarle Gallery,Lower Ground Floor,74 Newman Street,W1T 3DB,Westminster,https://albemarlegallery.com/,10033614780,E09000033,West End,E05013808,51.517627,-0.1359386,529433.2523,181502.7324,,,
ONEROOM Gallery,9 French Place,E1 6JB ,,Hackney,https://www.oneroomgallery.co.uk/,1.00E+11,E09000012,Hoxton East & Shoreditch,E05009377,51.525593,-0.078425034,533400.1764,182491.7846,,,
Zari Gallery,73 Newman Street,W1T 3EJ,,Westminster,https://zarigallery.co.uk,1.00E+11,E09000033,West End,E05013808,51.517664,-0.13600915,529428.2528,181506.7222,,,
Tsivrikos Shake,97 New Bond Street,W1S 1SN,,Westminster,https://www.tsivrikosshake.com/,10033598933,E09000033,West End,E05013808,51.513874,-0.14646865,528713.2673,181066.8387,,,
Carlos Ishikawa,"Unit 4, Cook's Yard",88 Mile End Road,,Tower Hamlets,https://www.carlosishikawa.com/,6362222,E09000030,Stepney Green,E05009334,51.520049,-0.0520063,535249.1478,181923.7802,,,
New Art Projects ,6D Sheep Ln,London,,Hackney,https://newartprojects.com/,10008322482,E09000012,London Fields,E05009381,51.535021,-0.060076278,534645.1319,183573.8386,,,
Almine Rech,Broadbent House,Grosvenor Hill,London,Westminster,https://www.alminerech.com/,1.00E+11,E09000033,West End,E05013808,51.511655,-0.14664516,528707.2726,180819.7728,,,
Dellasposa,2a Bathurst St,Tyburnia,London,Westminster,https://www.dellasposa.com/,1.00E+11,E09000033,Hyde Park,E05013796,51.512872,-0.17492953,526741.3021,180905.7882,,,
Belmacz,45 Davies Street,London,,Westminster,http://belmacz.com/,1.00E+11,E09000033,West End,E05013808,51.512411,-0.14840153,528583.2738,180900.7565,,,
Arcadia Missa,35 Duke Street,London,,Westminster,https://arcadiamissa.com/,10033571076,E09000033,West End,E05013808,51.515025,-0.15159604,528354.2715,181185.8343,,,
Sarah Myerscough Gallery,The Old Boathouse,1 White Hart Lane,,Richmond upon Thames,https://www.sarahmyerscough.com/,1.00E+11,E09000027,Mortlake & Barnes Common,E05013783,51.470772,-0.25548509,521263.4035,176087.8926,,,
Felix & Spear,71 St. Mary's Road,London ,,Ealing,https://www.felixandspear.com/,12083138,E09000009,Ealing Common,E05013521,51.504988,-0.30515836,517725.4616,179811.8277,,,
Studio West,"Unit 1, 216 Kensington Park Road",London,,Kensington and Chelsea,https://studiowest.art/,See notes,E09000020,Colville,E05009392,51.5164,-0.20607,524570.9563,181244.6905,,,
The Muse,269 Portobello Road,,,Kensington and Chelsea,https://themuseat269.london/,See notes,E09000020,Colville,E05009392,51.51792,-0.20683,524514.0825,181412.4256,,,
Cecilia Brunson Projects,2G Royal Oak Yard,Bermondsey Street,,Southwark,https://www.ceciliabrunsonprojects.com/,10009800248,E09000028,London Bridge & West Bermondsey,E05011104,51.498986,-0.082382679,533203.2185,179525.8463,,,
Corvi-Mora,1a Kempsford Road (off Wincott Street),London,,Lambeth,https://www.corvi-mora.com/,1.00E+11,E09000022,Kennington,E05014105,51.491182,-0.1085242,531411.2538,178610.8306,,,
EMALIN,1 Holywell Lane,London,,Hackney,https://emalin.co.uk/,1.00E+11,E09000012,Hoxton East & Shoreditch,E05009377,51.523871,-0.077589364,533463.1767,182301.8198,,,
Goodman Gallery,26 Cork Street,London,,Westminster,https://www.goodman-gallery.com/,10033640464,E09000033,West End,E05013808,51.510257,-0.14126892,529084.2685,180673.7734,,,
Gossamer Fog,BST 186a Deptford High Street,London,,Lewisham,https://www.gossamerfog.com/,1.00E+11,E09000023,Deptford,E05013719,51.480444,-0.026114803,537164.1921,177567.8631,,,
greengrassi,1a Kempsford Road,London,,Lambeth,https://www.greengrassi.com/,1.00E+11,E09000022,Kennington,E05014105,51.491182,-0.1085242,531411.2538,178610.8306,,,
Hazlitt Holland-Hibbert,37-38 Bury Street,London,,Westminster,www.hh-h.com,1.00E+11,E09000033,St James's,E05013806,51.506479,-0.13835337,529297.27,180258.7972,,,
Hignell Gallery,12 - 14 Shepherd Street,London,,Westminster,https://hignellgallery.com/,10033623042,E09000033,West End,E05013808,51.506319,-0.14699138,528698.2804,180225.7946,,,
Huxley-Parlour,3-5 Swallow Street,London,,Westminster,https://huxleyparlour.com/,10033625765,E09000033,West End,E05013808,51.509189,-0.13743589,529353.266,180561.772,,,
Jack Bell,13 Mason's Yard,London,,Westminster,https://www.jackbellgallery.com/,1.00E+11,E09000033,St James's,E05013806,51.507762,-0.13704737,529384.2673,180403.7741,,,
JD Malat Gallery,30 Davies Street,London,,Westminster,https://jdmalat.com/,1.00E+11,E09000033,West End,E05013808,51.511952,-0.14777164,528628.2723,180850.8209,,,
Karsten Schubert London,"Room 2, 44 Lexington Street",London,,Westminster,https://www.karstenschubert.com/,1.00E+11,E09000033,West End,E05013808,51.513081,-0.13619624,529428.2594,180996.7565,,,
KÖNIG London,259 Old Marylebone Road,London,,Westminster,https://www.koeniggalerie.com/,1.00E+11,E09000033,Marylebone,E05013801,51.518231,-0.16678788,527291.2839,181515.8358,,,
LAMB,32 St. George Street,London,,Westminster,https://www.lamb-arts.com/,1.00E+11,E09000033,West End,E05013808,51.512205,-0.1427317,528977.2662,180887.8168,,,
Luxembourg + Co.,2 Savile Row,London,,Westminster,https://luxembourgco.com/,1.00E+11,E09000033,West End,E05013808,51.510409,-0.13949018,529207.2652,180693.8119,,,
LGDR,22 Old Bond Street,London,,Westminster,https://lgdr.com/,1.00E+11,E09000033,West End,E05013808,51.509455,-0.14114305,529095.269,180584.8119,,,
Lyndsey Ingram,20 Bourdon Street,London,,Westminster,https://lyndseyingram.com/,See notes,E09000033,West End,E05013808,51.51115,-0.14527,528804.1159,180766.0332,,,
Maddox Gallery,9 Maddox Street,Mayfair,London,Westminster,https://maddoxgallery.com/,1.00E+11,E09000033,West End,E05013808,51.51331,-0.14156259,529055.2651,181012.7534,,,
MASSIMODECARLO,55 South Audley Street,London,,Westminster,https://www.massimodecarlo.com/,1.00E+11,E09000033,West End,E05013808,51.509755,-0.1521696,528329.281,180598.798,,,
Mazzoleni,15 Old Bond St,London,,Westminster,https://mazzoleniart.com/,1.00E+11,E09000033,West End,E05013808,51.50906,-0.14059713,529134.2675,180541.8496,,,
MMX Gallery,448 New Cross Road,London,,Lewisham,https://mmxgallery.com/,1.00E+11,E09000023,Deptford,E05013719,51.475247,-0.029348836,536955.2037,176983.9112,,,
mother's tankstation,58-64 Three Colts Lane,London,,Tower Hamlets,http://www.motherstankstation.com/,See notes,E09000030,St Peter's,E05009331,51.52449,-0.05565,534983.2384,182410.9111,,,
hmad Projects,2 Cork St,London,,Westminster,https://nahmadprojects.com/,10033547503,E09000033,West End,E05013808,51.510547,-0.14194887,529036.2677,180704.8238,,,
Opera Gallery,134 New Bond Street,London,,Westminster,https://www.operagallery.com/,1.00E+11,E09000033,West End,E05013808,51.511972,-0.14447058,528857.2678,180858.8467,,,
Parafin Gallery,18 Woodstock Street,London,,Westminster,http://parafin.co.uk/,1.00E+11,E09000033,West End,E05013808,51.513926,-0.14748981,528642.2682,181070.8273,,,
Patrick Heide Contemporary Art,11 Church Street,London,,Westminster,https://www.patrickheide.com/,1.00E+11,E09000033,Church Street,E05013794,51.524383,-0.16864545,527145.2795,182196.7227,,,
Paul Stolper,31 Museum Street,London,,Camden,https://www.paulstolper.com/,5159442,E09000007,Bloomsbury,E05013653,51.51791,-0.12603937,530119.2409,181551.7413,,,
Pippy Houldsworth Gallery,6 Heddon Street,London,,Westminster,https://www.houldsworth.co.uk/,1.00E+11,E09000033,West End,E05013808,51.511055,-0.13942061,529210.2654,180765.7706,,,
Project tive Informant,Dressage Court,48 Three Colts Lane ,,Tower Hamlets,https://projectnativeinformant.com/,6708732,E09000030,St Peter's,E05009331,51.524428,-0.056302719,534938.1445,182402.8121,,,
Richard Saltoun Gallery,41 Dover Street,London,,Westminster,https://www.richardsaltoun.com/,1.00E+11,E09000033,West End,E05013808,51.50805,-0.14212252,529031.2706,180426.8486,,,
Rodeo,12a Bourdon Street,London,,Westminster,https://rodeo-gallery.com/,1.00E+11,E09000033,West End,E05013808,51.51093,-0.14568023,528776.2708,180740.8477,,,
Seen Fifteen,"Studio DG1, The Bussey Building",Copeland Park,133 Copeland Road,Southwark,http://seenfifteen.com/,2.00E+11,E09000028,Rye Lane,E05011113,51.469999,-0.065772976,534441.2204,176332.8487,,,
Seventeen,270-276 Kingsland Road (Entrance on Acton Mews),London,,Hackney,http://www.seventeengallery.com/,1.00E+11,E09000012,Haggerston,E05009375,51.53785,-0.076250515,533515.1539,183858.7666,,,
Simon Lee Gallery,12 Berkeley Street,London,,Westminster,https://www.simonleegallery.com/,1.00E+11,E09000033,West End,E05013808,51.508216,-0.14298037,528971.2729,180443.7973,,,
Stephen Friedman Gallery,25-28 Old Burlington Street,London,,Westminster,https://www.stephenfriedman.com/,1.00E+11,E09000033,West End,E05013808,51.510608,-0.14125465,529084.2669,180712.8302,,,
Stern Pissarro Gallery,66 St. James's Street,London,,Westminster,,1.00E+11,E09000033,St James's,E05013806,51.506071,-0.13924901,529236.2706,180211.8468,,,
TAFETA,91 Great Russell Street,London,,Camden,https://www.tafeta.com/,See notes,E09000007,Bloomsbury,E05013653,51.51794,-0.12734,530028.9201,181552.7677,,,
Thaddeus Ropac,Ely House,37 Dover Street,,Westminster,https://ropac.net/,1.00E+11,E09000033,West End,E05013808,51.508497,-0.14253664,529001.2713,180475.8261,,,
The Approach,47 Approach Road,London,,Tower Hamlets,https://theapproach.co.uk/,6040399,E09000030,St Peter's,E05009331,51.531359,-0.051826309,535228.1263,183181.8271,,,
San Mei Gallery,39a Loughborough Road,,,Lambeth,https://www.sanmeigallery.co.uk/,10094054829,E09000022,Myatt's Fields,E05014107,51.470868,-0.10854377,531468.2266,176351.8552,,,
Fitztrovia Chapel,Fitzroy Place,2 Pearson Square,,Westminster,https://www.fitzroviachapel.org/,10033628103,E09000033,West End,E05013808,51.518969,-0.13833416,529263.253,181647.7341,,,
The Gallery of Everything,4 Chiltern Street,,,Westminster,https://www.gallevery.com/,1.00E+11,E09000033,Marylebone,E05013801,51.518587,-0.15455076,528139.2709,181576.7607,,,
TJ Boulting,59 Riding House Street,,,Westminster,https://www.tjboulting.com/,1.00E+11,E09000033,West End,E05013808,51.519301,-0.13940168,529188.2529,181682.7696,,,
Union Pacific,17 Goulston Street,,,Tower Hamlets,https://unionpacific.co.uk/,6001918,E09000030,Spitalfields & Banglatown,E05009333,51.51604,-0.074993225,533666.1867,181435.7414,,,
Vigo Gallery,7-8 Masons Yard,St. James's,,Westminster,https://www.vigogallery.com/,10033538227,E09000033,St James's,E05013806,51.507811,-0.13730475,529366.268,180408.7684,,,
Yamamoto Keiko Rochaix,19 Goulston Street,,,Tower Hamlets,https://yamamotokeiko.com/,6002479,E09000030,Spitalfields & Banglatown,E05009333,51.51604,-0.074993225,533666.1867,181435.7414,,,
Knight Webb Gallery,58 Battersea Bridge Rd,,,Wandsworth,https://www.knightwebbgallery.com/,1.00E+11,E09000032,St Mary's,E05014018,51.478596,-0.17049448,527144.3125,177101.9209,,,
JGM Gallery,24 Howie St,,,Wandsworth,https://www.jgmgallery.com/,10094189970,E09000032,Battersea Park,E05014010,51.479244,-0.16938845,527219.313,177175.8994,,,
Quantum Contemporary Art,The Imperial Laundry,87 Warriner Gardens,,Wandsworth,https://www.quantumart.co.uk/,See notes,E09000032,Battersea Park,E05014010,51.47422,-0.15817,528012.3323,176636.7531,,,
London Glassblowing ,62-66 Bermondsey Street,,,Southwark,https://londonglassblowing.co.uk/,2.00E+11,E09000028,London Bridge & West Bermondsey,E05011104,51.501615,-0.082574898,533182.2157,179817.841,,,
Moarain House,223 Cambridge Heath Road,E2 0EL,,Tower Hamlets,https://www.moarainhouse.com/,6179213,E09000030,St Peter's,E05009331,51.524971,-0.055429054,534997.1424,182464.8079,,,
Guts Gallery ,"Unit 2, Sidings House",10 Andre Street,Lower Clapton,Hackney,https://gutsgallery.co.uk/,10008348250,E09000012,Hackney Central,E05009372,51.550799,-0.062563985,534426.1639,185323.8129,,,
Unit London,3 Hanover Square,Mayfair,,Westminster,https://unitlondon.com/,1.00E+11,E09000033,West End,E05013808,51.513457,-0.14289693,528962.2665,181026.7499,,,
Sid Motion Gallery,24a Perth Centre,Hatcham Road,,Southwark,https://sidmotiongallery.co.uk/,No UPRN,E09000028,Old Kent Road,E05011109,51.48388,-0.05488,535156.7398,177896.4559,,,
Indigo + Madder,Kirkman House,12 - 14 Whitfield Street,,Camden,https://indigoplusmadder.com/,5161102,E09000007,Bloomsbury,E05013653,51.519403,-0.13392022,529568.2459,181703.7943,,,
Bosse & Baum,Unit BGC,"Ground Floor, Bussey Building", 133 Rye Lane,Southwark,https://www.bosseandbaum.com/,2.00E+11,E09000028,Rye Lane,E05011113,51.469999,-0.065772976,534441.2204,176332.8487,,,
Alice Black,46 Mortimer St,London,,Westminster,https://www.aliceblackart.com/,1.00E+11,E09000033,West End,E05013808,51.517909,-0.14065473,529105.2563,181525.768,,,
Taymour Grahne - Holland Park,10 Portland Road,London,,Kensington and Chelsea,https://taymourgrahne.com/,217106980,E09000020,Norland,E05009398,51.507294,-0.20796417,524464.3453,180228.8643,,,
Taymour Grahne - Holland Park,1 Lonsdale Road,London,,Kensington and Chelsea,https://taymourgrahne.com/,217113069,E09000020,Colville,E05009392,51.515206,-0.19969792,525016.327,181122.7709,,,
Taymour Grahne Projects - The Artist Room,52 Lonsdale Road,London,,Kensington and Chelsea,https://taymourgrahne.com/,217055450,E09000020,Colville,E05009392,51.514732,-0.20159024,524886.3282,181066.8333,,,
DADA Gallery,4 Cromwell Place,London,,Kensington and Chelsea,https://thedadagallery.com/,217021416,E09000020,Brompton & Hans Town,E05009389,51.495116,-0.17460158,526813.3264,178931.8606,,,
IONE & MANN,4 Cromwell Place,London,,Kensington and Chelsea,https://www.ioneandmann.com/,217021416,E09000020,Brompton & Hans Town,E05009389,51.495116,-0.17460158,526813.3264,178931.8606,,,
Addis Fine Art,21 Eastcastle St,London,,Westminster,https://addisfineart.com/,1.00E+11,E09000033,West End,E05013808,51.516815,-0.13798962,529293.2541,181408.8147,,,
ammann // projects,4 Cromwell Place,London,,Kensington and Chelsea,https://www.ammann-projects.com/,217021416,E09000020,Brompton & Hans Town,E05009389,51.495116,-0.17460158,526813.3264,178931.8606,,,
Amanda Wilkinson Gallery,"1st Floor, 18 Brewer St",London,,Westminster,https://amandawilkinsongallery.com/,1.00E+11,E09000033,West End,E05013808,51.51235,-0.13430933,529561.257,180918.8042,,,
3812 Gallery,21 Ryder Street,,,Westminster,https://www.3812gallery.com/,1.00E+11,E09000033,St James's,E05013806,51.5066,-0.13857901,529281.2692,180271.8543,,,
Bartha Contemporary,7 Ledbury Mews North,London,,Kensington and Chelsea,https://www.barthacontemporary.com/,217052551,E09000020,Colville,E05009392,51.513711,-0.19952628,525032.3282,180956.8168,,,
AALondon Gallery,24 Devonshire Road,Chiswick,,Hounslow,https://www.aalondongallery.com/,2.00E+11,E09000018,Chiswick Homefields,E05013610,51.491728,-0.25567924,521194.4227,178417.9138,,,
Black Box Projects,"4 Cromwell Place, Gallery 3",London,,Kensington and Chelsea,https://blackboxprojects.art/,217021416,E09000020,Brompton & Hans Town,E05009389,51.495116,-0.17460158,526813.3264,178931.8606,,,
Ben Hunter,44 Duke Street,London,,Westminster,https://www.benhunter.gallery/,10033533700,E09000033,St James's,E05013806,51.506981,-0.13768445,529342.269,180315.801,,,
Berntson Bhattacharjee Gallery,4 Cromwell Place,London,,Kensington and Chelsea,https://www.bbgallery.art/,217021416,E09000020,Brompton & Hans Town,E05009389,51.495116,-0.17460158,526813.3264,178931.8606,,,
Castor,Kirkman House,12 - 14 Whitfield Street,,Camden,https://www.castor.gallery/,5161102,E09000007,Bloomsbury,E05013653,51.519403,-0.13392022,529568.2459,181703.7943,,,
Claas Reiss,96 Robert Street,London,,Camden,https://claasreiss.com/,5006981,E09000007,Regent's Park,E05013668,51.528678,-0.14324357,528895.2447,182718.7353,,,
Cooke Latham,41 Parkgate Road,London,,Wandsworth,https://www.cookelathamgallery.com/,10090501557,E09000032,Battersea Park,E05014010,51.479149,-0.16736167,527360.311,177168.8554,,,
CØPPERFIELD,6 Copperfield Street,London,,Southwark,https://www.copperfieldgallery.com/,2.00E+11,E09000028,Borough & Bankside,E05011095,51.503167,-0.097293305,532156.23,179963.7705,,,
Darren Flook/Freehouse,106 Great Portland St.,London,,Westminster,https://freehouse54.com/,1.00E+11,E09000033,West End,E05013808,51.519292,-0.14221278,528993.255,181676.8144,,,
Doyle Wham,91a Rivington Street,London,,Hackney,https://www.doylewham.com/,1.00E+11,E09000012,Hoxton East & Shoreditch,E05009377,51.526368,-0.07853656,533390.1761,182577.7624,,,
Eve Leibe,5 Dalston Lane,London,,Tower Hamlets,https://www.eveleibegallery.com/,6718547,E09000030,Bow East,E05009319,51.539715,-0.023450254,537171.0953,184163.77,,,
Galerie Max Hetzler,"First Floor, 41 Dover Street
",London,,Westminster,www.maxhetzler.com,See notes,E09000033,West End,E05013808,51.5081,-0.14205,529036.1618,180432.5364,,,
Grove Collective,9b Battersea Square,London,,Wandsworth,https://grovecollective.co/,See notes,E09000032,St Mary's,E05014018,51.47539,-0.17529,526820.1979,176737.0975,,,
Hollybush Gardens,1–2 Warner Yard,London,,Camden,https://hollybushgardens.co.uk/,5193849,E09000007,Holborn & Covent Garden,E05013662,51.523176,-0.11122059,531132.2206,182163.7496,,,
Holtermann Fine Art,30 Cork Street,London,,Westminster,https://www.holtermannfineart.com/,10033572344,E09000033,West End,E05013808,51.510531,-0.14151718,529066.2677,180703.8051,,,
Josh Lilley,40-46 Riding House Street,London,,Westminster,https://joshlilleygallery.com/,1.00E+11,E09000033,West End,E05013808,51.519056,-0.13928193,529197.2538,181655.7365,,,
Lehmann Maupin,1 Cromwell Place,London,,Kensington and Chelsea,https://www.lehmannmaupin.com/,217021409,E09000020,Brompton & Hans Town,E05009389,51.494873,-0.17458248,526815.3263,178904.8716,,,
LUNGLEY Gallery,2nd Floor,53 Great Portland Street,,Westminster,https://lungleygallery.com/,1.00E+11,E09000033,West End,E05013808,51.517477,-0.14176774,529029.2581,181475.7678,,,
MAMOTH,3 Endsleigh Street,London,,Camden,https://www.mamoth.co.uk/,5020599,E09000007,Bloomsbury,E05013653,51.526241,-0.13080065,529765.2365,182469.7092,,,
Studio M ,Rochelle School,Friars Mount House,7 Playground Garde,Tower Hamlets,https://www.maureenpaley.com/,6180242,E09000030,Weavers,E05009335,51.525775,-0.074150215,533696.1687,182519.8268,,,
Maximilian William ,47 Mortimer Street,London,,Westminster,https://maximillianwilliam.com/,10033604688,E09000033,West End,E05013808,51.517823,-0.13918806,529207.2546,181518.7908,,,
NiCOLETTi,12A Vyner Street,London,,Tower Hamlets,https://nicoletticontemporary.com/,6023255,E09000030,St Peter's,E05009331,51.534309,-0.056184619,534917.1277,183501.8339,,,
Niru Ratm,"First Floor, 23 Ganton Street",London,,Westminster,www.niruratnam.com,1.00E+11,E09000033,West End,E05013808,51.512796,-0.13920555,529220.263,180959.7513,,,
No.9 Cork Street,9 Cork Street,London,,Westminster,https://www.frieze.com/no9-cork-street,10033647382,E09000033,West End,E05013808,51.510235,-0.14158686,529062.2689,180670.7668,,,
PATERSON ZEVI,"Flat 1, 41 Davies Street",London,,Westminster,https://patersonzevi.com/,No UPRN,E09000033,West End,E05013808,51.51226,-0.14836,528586.5805,180884.038,,,
Pilar Corrias Savile Row,2 Savile Row,W1S 3PA,,Westminster,http://www.pilarcorrias.com/#,1.00E+11,E09000033,West End,E05013808,51.510409,-0.13949018,529207.2652,180693.8119,,,
PUBLIC Gallery,91 Middlesex Street,London,,City of London,https://publicgallery.co/,1.00E+11,E09000001,Portsoken,E05009308,51.516258,-0.076713646,533546.1862,181456.8417,,,
Saatchi Yates,6 Cork Street,London,,Westminster,https://saatchiyates.com/,1.00E+11,E09000033,West End,E05013808,51.51034,-0.14195728,529036.2688,180681.7904,,,
SEAGER,Distillery Tower,2 Mill Lane,,Lewisham,https://seagergallery.com/,10090785511,E09000023,Brockley,E05013716,51.473662,-0.023354832,537376.2062,176818.8862,,,
Sim Smith,6 Camberwell Passage,London,,Southwark,https://www.sim-smith.com/,10093342310,E09000028,Camberwell Green,E05011096,51.474801,-0.094326691,532444.2221,176814.8098,,,
Soft Opening,6 Minerva Street,London,,Tower Hamlets,https://www.softopening.london/,6143359,E09000030,St Peter's,E05009331,51.531598,-0.059731586,534679.1374,183193.82,,,
South Parade,Enclave 9,50 Resolution Way,Deptford,Lewisham,https://www.southparade.biz/,10090784821,E09000023,Deptford,E05013719,51.478455,-0.024386142,537290.1944,177349.928,,,
Sundy,63 Black Prince Rd,London,,Lambeth,https://sundy.co.uk/,1.00E+11,E09000022,Vauxhall,E05014117,51.491534,-0.11863653,530708.2641,178631.8856,,,
Tabula Rasa Gallery,"Unit One, 99 East Road",London,,Hackney,https://gallerytabularasa.co.uk/,1.00E+11,E09000012,Hoxton West,E05009378,51.529782,-0.087158568,532782.185,182941.7198,,,
The Artist Room,"Floor 3, 76 Brewer St",London,,Westminster,https://theartistroom.com/,1.00E+11,E09000033,West End,E05013808,51.511005,-0.13679981,529392.2607,180764.8366,,,
The Perimeter,20 Brownlow Mews,London,,Camden,https://www.theperimeter.co.uk/,5019327,E09000007,Holborn & Covent Garden,E05013662,51.524061,-0.11594107,530802.2249,182253.722,,,
Trafalgar Avenue,29 Trafalgar Avenue,London,,Southwark,https://www.trafalgaravenue.co.uk/,2.00E+11,E09000028,Old Kent Road,E05011109,51.485689,-0.073808795,533837.2219,178062.8497,,,
Blue Shop Cottage,113A Grove Lane,London,,Southwark,https://www.blueshopcottage.com/,2.00E+11,E09000028,Champion Hill,E05011097,51.468397,-0.086473108,533008.2165,176116.9163,,,
The Lemongrove Gallery,255A Chiswick High Rd,Chiswick,,Hounslow,https://www.thelemongrovegallery.co.uk/,1.00E+11,E09000018,Chiswick Gunnersbury,E05013609,51.492205,-0.26176883,520770.4289,178460.9069,,,
Xxijra Hii,Enclave 4,50 Resolution Way,,Lewisham,https://xxijrahii.net/,10090784822,E09000023,Deptford,E05013719,51.478455,-0.024386142,537290.1944,177349.928,,,
OPEN Ealing,"Unit 14, School Lane Dickens Yard",,,Ealing,https://openealing.com,12181007,E09000009,Ealing Broadway,E05013520,51.513877,-0.3060391,517641.4472,180798.9061,,,
